CCSDS_OMM_VERS = 2.0
CREATION_DATE  = 
ORIGINATOR     = 

OBJECT_NAME    = STARLINK-36411
OBJECT_ID      = 2026-018V
CENTER_NAME    = EARTH
REF_FRAME      = TEME
TIME_SYSTEM    = UTC
MEAN_ELEMENT_THEORY = SGP/SGP4

EPOCH          = 2026-02-05T04:00:01.999584
MEAN_MOTION    = 16.00039455
ECCENTRICITY   = .0001601
INCLINATION    = 97.2770
RA_OF_ASC_NODE = 100.2179
ARG_OF_PERICENTER = 63.5907
MEAN_ANOMALY   = 95.1195

EPHEMERIS_TYPE = 0
CLASSIFICATION_TYPE = U
NORAD_CAT_ID   = 67608
ELEMENT_SET_NO = 999
REV_AT_EPOCH   = 216
BSTAR          = -.27768E-2
MEAN_MOTION_DOT = -.1401275E-1
MEAN_MOTION_DDOT = .61225E-3

CCSDS_OMM_VERS = 2.0
CREATION_DATE  = 
ORIGINATOR     = 

OBJECT_NAME    = STARLINK-36312
OBJECT_ID      = 2026-018W
CENTER_NAME    = EARTH
REF_FRAME      = TEME
TIME_SYSTEM    = UTC
MEAN_ELEMENT_THEORY = SGP/SGP4

EPOCH          = 2026-02-05T04:00:01.999584
MEAN_MOTION    = 16.00232431
ECCENTRICITY   = .000154
INCLINATION    = 97.2773
RA_OF_ASC_NODE = 100.2191
ARG_OF_PERICENTER = 66.3525
MEAN_ANOMALY   = 94.7671

EPHEMERIS_TYPE = 0
CLASSIFICATION_TYPE = U
NORAD_CAT_ID   = 67609
ELEMENT_SET_NO = 999
REV_AT_EPOCH   = 217
BSTAR          = -.27742E-2
MEAN_MOTION_DOT = -.1415193E-1
MEAN_MOTION_DDOT = .62492E-3

CCSDS_OMM_VERS = 2.0
CREATION_DATE  = 
ORIGINATOR     = 

OBJECT_NAME    = STARLINK-36387
OBJECT_ID      = 2026-018X
CENTER_NAME    = EARTH
REF_FRAME      = TEME
TIME_SYSTEM    = UTC
MEAN_ELEMENT_THEORY = SGP/SGP4

EPOCH          = 2026-02-05T04:00:01.999584
MEAN_MOTION    = 16.00440079
ECCENTRICITY   = .0001544
INCLINATION    = 97.2769
RA_OF_ASC_NODE = 100.2201
ARG_OF_PERICENTER = 67.2390
MEAN_ANOMALY   = 96.7173

EPHEMERIS_TYPE = 0
CLASSIFICATION_TYPE = U
NORAD_CAT_ID   = 67610
ELEMENT_SET_NO = 999
REV_AT_EPOCH   = 217
BSTAR          = -.26638E-2
MEAN_MOTION_DOT = -.1375396E-1
MEAN_MOTION_DDOT = .59414E-3

CCSDS_OMM_VERS = 2.0
CREATION_DATE  = 
ORIGINATOR     = 

OBJECT_NAME    = STARLINK-36636
OBJECT_ID      = 2026-018Y
CENTER_NAME    = EARTH
REF_FRAME      = TEME
TIME_SYSTEM    = UTC
MEAN_ELEMENT_THEORY = SGP/SGP4

EPOCH          = 2026-02-05T04:00:01.999584
MEAN_MOTION    = 16.00598110
ECCENTRICITY   = .0001474
INCLINATION    = 97.2768
RA_OF_ASC_NODE = 100.2213
ARG_OF_PERICENTER = 65.8327
MEAN_ANOMALY   = 100.2929

EPHEMERIS_TYPE = 0
CLASSIFICATION_TYPE = U
NORAD_CAT_ID   = 67611
ELEMENT_SET_NO = 999
REV_AT_EPOCH   = 212
BSTAR          = -.26283E-2
MEAN_MOTION_DOT = -.1369383E-1
MEAN_MOTION_DDOT = .59039E-3

CCSDS_OMM_VERS = 2.0
CREATION_DATE  = 
ORIGINATOR     = 

OBJECT_NAME    = STARLINK-36407
OBJECT_ID      = 2026-018Z
CENTER_NAME    = EARTH
REF_FRAME      = TEME
TIME_SYSTEM    = UTC
MEAN_ELEMENT_THEORY = SGP/SGP4

EPOCH          = 2026-02-05T04:00:01.999584
MEAN_MOTION    = 16.00731260
ECCENTRICITY   = .0001413
INCLINATION    = 97.2769
RA_OF_ASC_NODE = 100.2223
ARG_OF_PERICENTER = 68.4563
MEAN_ANOMALY   = 99.5496

EPHEMERIS_TYPE = 0
CLASSIFICATION_TYPE = U
NORAD_CAT_ID   = 67612
ELEMENT_SET_NO = 999
REV_AT_EPOCH   = 222
BSTAR          = -.25924E-2
MEAN_MOTION_DOT = -.1361047E-1
MEAN_MOTION_DDOT = .58463E-3

CCSDS_OMM_VERS = 2.0
CREATION_DATE  = 
ORIGINATOR     = 

OBJECT_NAME    = STARLINK-36597
OBJECT_ID      = 2026-018AA
CENTER_NAME    = EARTH
REF_FRAME      = TEME
TIME_SYSTEM    = UTC
MEAN_ELEMENT_THEORY = SGP/SGP4

EPOCH          = 2026-02-05T04:00:01.999584
MEAN_MOTION    = 16.00885681
ECCENTRICITY   = .000155
INCLINATION    = 97.2764
RA_OF_ASC_NODE = 100.2228
ARG_OF_PERICENTER = 64.4797
MEAN_ANOMALY   = 105.5847

EPHEMERIS_TYPE = 0
CLASSIFICATION_TYPE = U
NORAD_CAT_ID   = 67613
ELEMENT_SET_NO = 999
REV_AT_EPOCH   = 212
BSTAR          = -.25719E-2
MEAN_MOTION_DOT = -.1362263E-1
MEAN_MOTION_DDOT = .58663E-3

CCSDS_OMM_VERS = 2.0
CREATION_DATE  = 
ORIGINATOR     = 

OBJECT_NAME    = NEONSAT-1A
OBJECT_ID      = 2026-019A
CENTER_NAME    = EARTH
REF_FRAME      = TEME
TIME_SYSTEM    = UTC
MEAN_ELEMENT_THEORY = SGP/SGP4

EPOCH          = 2026-02-04T22:13:50.892672
MEAN_MOTION    = 15.07545463
ECCENTRICITY   = .0011683
INCLINATION    = 97.4097
RA_OF_ASC_NODE = 160.6868
ARG_OF_PERICENTER = 288.7976
MEAN_ANOMALY   = 71.1985

EPHEMERIS_TYPE = 0
CLASSIFICATION_TYPE = U
NORAD_CAT_ID   = 67614
ELEMENT_SET_NO = 999
REV_AT_EPOCH   = 88
BSTAR          = .33571E-3
MEAN_MOTION_DOT = .5049E-4
MEAN_MOTION_DDOT = 0

CCSDS_OMM_VERS = 2.0
CREATION_DATE  = 
ORIGINATOR     = 

OBJECT_NAME    = ELECTRON R/B
OBJECT_ID      = 2026-019B
CENTER_NAME    = EARTH
REF_FRAME      = TEME
TIME_SYSTEM    = UTC
MEAN_ELEMENT_THEORY = SGP/SGP4

EPOCH          = 2026-02-04T20:57:35.840736
MEAN_MOTION    = 15.83249261
ECCENTRICITY   = .0208539
INCLINATION    = 97.4358
RA_OF_ASC_NODE = 161.2894
ARG_OF_PERICENTER = 205.5786
MEAN_ANOMALY   = 153.5053

EPHEMERIS_TYPE = 0
CLASSIFICATION_TYPE = U
NORAD_CAT_ID   = 67615
ELEMENT_SET_NO = 999
REV_AT_EPOCH   = 91
BSTAR          = .17021E-2
MEAN_MOTION_DOT = .2209581E-1
MEAN_MOTION_DDOT = .21739E-5

CCSDS_OMM_VERS = 2.0
CREATION_DATE  = 
ORIGINATOR     = 

OBJECT_NAME    = ELECTRON KICK STAGE R/B
OBJECT_ID      = 2026-019C
CENTER_NAME    = EARTH
REF_FRAME      = TEME
TIME_SYSTEM    = UTC
MEAN_ELEMENT_THEORY = SGP/SGP4

EPOCH          = 2026-02-05T03:14:54.409344
MEAN_MOTION    = 15.56606246
ECCENTRICITY   = .0198858
INCLINATION    = 97.4069
RA_OF_ASC_NODE = 161.3173
ARG_OF_PERICENTER = 240.3079
MEAN_ANOMALY   = 117.8253

EPHEMERIS_TYPE = 0
CLASSIFICATION_TYPE = U
NORAD_CAT_ID   = 67616
ELEMENT_SET_NO = 999
REV_AT_EPOCH   = 94
BSTAR          = .19636E-2
MEAN_MOTION_DOT = .355696E-2
MEAN_MOTION_DDOT = .35513E-4

CCSDS_OMM_VERS = 2.0
CREATION_DATE  = 
ORIGINATOR     = 

OBJECT_NAME    = STARLINK-36548
OBJECT_ID      = 2026-020A
CENTER_NAME    = EARTH
REF_FRAME      = TEME
TIME_SYSTEM    = UTC
MEAN_ELEMENT_THEORY = SGP/SGP4

EPOCH          = 2026-01-30T08:15:55.399680
MEAN_MOTION    = 16.02007763
ECCENTRICITY   = .00069
INCLINATION    = 43.0100
RA_OF_ASC_NODE = 17.8878
ARG_OF_PERICENTER = 318.5000
MEAN_ANOMALY   = 14.7500

EPHEMERIS_TYPE = 0
CLASSIFICATION_TYPE = U
NORAD_CAT_ID   = 67617
ELEMENT_SET_NO = 999
REV_AT_EPOCH   = 1
BSTAR          = 0
MEAN_MOTION_DOT = -.2705E-4
MEAN_MOTION_DDOT = .8550678E-5

CCSDS_OMM_VERS = 2.0
CREATION_DATE  = 
ORIGINATOR     = 

OBJECT_NAME    = STARLINK-36601
OBJECT_ID      = 2026-020B
CENTER_NAME    = EARTH
REF_FRAME      = TEME
TIME_SYSTEM    = UTC
MEAN_ELEMENT_THEORY = SGP/SGP4

EPOCH          = 2026-01-30T08:15:55.399680
MEAN_MOTION    = 16.02007763
ECCENTRICITY   = .00069
INCLINATION    = 43.0100
RA_OF_ASC_NODE = 17.8878
ARG_OF_PERICENTER = 318.5000
MEAN_ANOMALY   = 14.7500

EPHEMERIS_TYPE = 0
CLASSIFICATION_TYPE = U
NORAD_CAT_ID   = 67618
ELEMENT_SET_NO = 999
REV_AT_EPOCH   = 1
BSTAR          = 0
MEAN_MOTION_DOT = -.2705E-4
MEAN_MOTION_DDOT = .8550678E-5

CCSDS_OMM_VERS = 2.0
CREATION_DATE  = 
ORIGINATOR     = 

OBJECT_NAME    = STARLINK-36119
OBJECT_ID      = 2026-020C
CENTER_NAME    = EARTH
REF_FRAME      = TEME
TIME_SYSTEM    = UTC
MEAN_ELEMENT_THEORY = SGP/SGP4

EPOCH          = 2026-01-30T08:15:55.399680
MEAN_MOTION    = 16.02007763
ECCENTRICITY   = .00069
INCLINATION    = 43.0100
RA_OF_ASC_NODE = 17.8878
ARG_OF_PERICENTER = 318.5000
MEAN_ANOMALY   = 14.7500

EPHEMERIS_TYPE = 0
CLASSIFICATION_TYPE = U
NORAD_CAT_ID   = 67619
ELEMENT_SET_NO = 999
REV_AT_EPOCH   = 1
BSTAR          = 0
MEAN_MOTION_DOT = -.2705E-4
MEAN_MOTION_DDOT = .8550678E-5

