STARLINK-36411          
1 67608U 26018V   26036.16668981 -.01401275  61225-3 -27768-2 0  9999
2 67608  97.2770 100.2179 0001601  63.5907  95.1195 16.00039455  2161
STARLINK-36312          
1 67609U 26018W   26036.16668981 -.01415193  62492-3 -27742-2 0  9993
2 67609  97.2773 100.2191 0001540  66.3525  94.7671 16.00232431  2172
STARLINK-36387          
1 67610U 26018X   26036.16668981 -.01375396  59414-3 -26638-2 0  9998
2 67610  97.2769 100.2201 0001544  67.2390  96.7173 16.00440079  2173
STARLINK-36636          
1 67611U 26018Y   26036.16668981 -.01369383  59039-3 -26283-2 0  9997
2 67611  97.2768 100.2213 0001474  65.8327 100.2929 16.00598110  2127
STARLINK-36407          
1 67612U 26018Z   26036.16668981 -.01361047  58463-3 -25924-2 0  9998
2 67612  97.2769 100.2223 0001413  68.4563  99.5496 16.00731260  2229
STARLINK-36597          
1 67613U 26018AA  26036.16668981 -.01362263  58663-3 -25719-2 0  9994
2 67613  97.2764 100.2228 0001550  64.4797 105.5847 16.00885681  2121
NEONSAT-1A              
1 67614U 26019A   26035.92628348  .00005049  00000+0  33571-3 0  9999
2 67614  97.4097 160.6868 0011683 288.7976  71.1985 15.07545463   880
ELECTRON R/B            
1 67615U 26019B   26035.87333149  .02209581  21739-5  17021-2 0  9994
2 67615  97.4358 161.2894 0208539 205.5786 153.5053 15.83249261   917
ELECTRON KICK STAGE R/B 
1 67616U 26019C   26036.13535196  .00355696  35513-4  19636-2 0  9996
2 67616  97.4069 161.3173 0198858 240.3079 117.8253 15.56606246   940
STARLINK-36548          
1 67617U 26020A   26030.34439120 -.00002705  85507-5  00000+0 0  9998
2 67617  43.0100  17.8878 0006900 318.5000  14.7500 16.02007763    18
STARLINK-36601          
1 67618U 26020B   26030.34439120 -.00002705  85507-5  00000+0 0  9999
2 67618  43.0100  17.8878 0006900 318.5000  14.7500 16.02007763    19
STARLINK-36119          
1 67619U 26020C   26030.34439120 -.00002705  85507-5  00000+0 0  9990
2 67619  43.0100  17.8878 0006900 318.5000  14.7500 16.02007763    10
